GLOBALSTAR M068         
1 32266U 07048D   24269.10302628 -.00000078  00000+0  14639-3 0  9994
2 32266  51.9905  30.3063 0000256 235.1420 296.2015 12.62800569784356
GLOBALSTAR M079         
1 37188U 10054A   24269.13760525 -.00000069  00000+0  19616-3 0  9990
2 37188  52.0025 226.6406 0000745  64.7916 308.2489 12.62264490643663
GLOBALSTAR M074         
1 37189U 10054B   24268.64381780 -.00000083  00000+0  11817-3 0  9999
2 37189  52.0001 227.5024 0000471  72.8452  98.0922 12.62289299643597
GLOBALSTAR M076         
1 37190U 10054C   24268.87514656 -.00000071  00000+0  18529-3 0  9990
2 37190  52.0017 226.9527 0000727  92.8504 284.9630 12.62270437643632
GLOBALSTAR M077         
1 37191U 10054D   24268.49941021 -.00000074  00000+0  16441-3 0  9993
2 37191  52.0060 184.8744 0000613  66.3354 104.8070 12.62264124643596
GLOBALSTAR M075         
1 37192U 10054E   24268.76335722 -.00000087  00000+0  96251-4 0  9991
2 37192  51.9931 269.6972 0000404  73.0594  98.1963 12.62265004642487
GLOBALSTAR M073         
1 37193U 10054F   24268.81326698 -.00000080  00000+0  13141-3 0  9999
2 37193  52.0051 183.1597 0000710  77.1388 321.0220 12.62269950644325
GLOBALSTAR M083         
1 37739U 11033A   24268.66767279 -.00000102  00000+0  94615-5 0  9992
2 37739  51.9840 132.6967 0000901  65.5445 331.5094 12.62264957613325
GLOBALSTAR M088         
1 37740U 11033B   24268.82619167 -.00000099  00000+0  26679-4 0  9993
2 37740  51.9750  37.9241 0000815  88.7265  70.0509 12.62267741608885
GLOBALSTAR M091         
1 37741U 11033C   24268.76292958 -.00000085  00000+0  10638-3 0  9994
2 37741  52.0024   1.2028 0000675  76.6316  92.4893 12.62267290609666
GLOBALSTAR M085         
1 37742U 11033D   24268.40062635 -.00000070  00000+0  18711-3 0  9997
2 37742  51.9875 313.5803 0000477  71.7789 311.4835 12.62266312610137
GLOBALSTAR M081         
1 37743U 11033E   24268.85543692 -.00000072  00000+0  17470-3 0  9997
2 37743  51.9968 314.8184 0000679  84.6092  86.4317 12.62269746610331
GLOBALSTAR M089         
1 37744U 11033F   24268.73693462 -.00000071  00000+0  18265-3 0  9998
2 37744  51.9915 269.4581 0000552 117.0621  53.6020 12.62269285611166
GLOBALSTAR M084         
1 38040U 11080A   24268.63949825 -.00000093  00000+0  59426-4 0  9995
2 38040  51.9992 136.8992 0000720  98.6527 289.9148 12.62267866589139
GLOBALSTAR M080         
1 38041U 11080B   24268.40695769 -.00000085  00000+0  10637-3 0  9997
2 38041  52.0047 139.1210 0000988 102.1792  69.0069 12.62266021589224
GLOBALSTAR M082         
1 38042U 11080C   24268.78125743 -.00000098  00000+0  30353-4 0  9991
2 38042  52.0061  93.3975 0000761  49.5419 323.4845 12.62267030589982
GLOBALSTAR M092         
1 38043U 11080D   24268.67840438 -.00000068  00000+0  19695-3 0  9997
2 38043  52.0078 184.0740 0000479  70.9233 314.6337 12.62266477588427
GLOBALSTAR M090         
1 38044U 11080E   24268.80793560 -.00000099  00000+0  25521-4 0  9996
2 38044  51.9872  87.4660 0000800  70.7250 303.6624 12.62268046590109
GLOBALSTAR M086         
1 38045U 11080F   24268.75474417 -.00000091  00000+0  73226-4 0  9995
2 38045  51.9884  88.1579 0001768  90.2404 282.9601 12.62267478590047
GLOBALSTAR M097         
1 39072U 13005A   24268.69948497 -.00000097  00000+0  38310-4 0  9993
2 39072  52.0075   2.6070 0000789  84.2626 275.8330 12.62270478537281
GLOBALSTAR M093         
1 39073U 13005B   24268.98935297 -.00000072  00000+0  17627-3 0  9990
2 39073  51.9840 355.4495 0000729  80.2836 279.8113 12.62264485537399
GLOBALSTAR M094         
1 39074U 13005C   24269.14778808 -.00000093  00000+0  61146-4 0  9992
2 39074  51.9941 269.0846 0000600  64.8588 295.2341 12.62268507538926
GLOBALSTAR M096         
1 39075U 13005D   24268.44834957 -.00000075  00000+0  15825-3 0  9995
2 39075  52.0088 319.5232 0000614  70.0614 290.0318 12.62270562537734
GLOBALSTAR M078         
1 39076U 13005E   24268.65925489 -.00000096  00000+0  42145-4 0  9999
2 39076  51.9886  43.7453 0000559 354.1368   5.9492 12.62274884536387
GLOBALSTAR M095         
1 39077U 13005F   24268.68589546 -.00000097  00000+0  39178-4 0  9996
2 39077  51.9817  40.9946 0000776  49.9793 310.1142 12.62264904536240
GLOBALSTAR M087         
1 52888U 22064A   24268.56443036 -.00000065  00000+0  11979-3 0  9999
2 52888  51.9748 221.8536 0008864 257.1156 102.8755 13.37586418110823
